[{"OBJECT_NAME":"STARLINK-30391","OBJECT_ID":"2023-138K","EPOCH":"2026-03-09T22:00:01.999584","MEAN_MOTION":15.26680163,"ECCENTRICITY":0.00016736,"INCLINATION":43.0001,"RA_OF_ASC_NODE":233.1388,"ARG_OF_PERICENTER":287.9254,"MEAN_ANOMALY":308.8017,"EPHEMERIS_TYPE":0,"CLASSIFICATION_TYPE":"U","NORAD_CAT_ID":57817,"ELEMENT_SET_NO":999,"REV_AT_EPOCH":578,"BSTAR":0.00293751,"MEAN_MOTION_DOT":0.00079242,"MEAN_MOTION_DDOT":0},{"OBJECT_NAME":"CZ-6A DEB","OBJECT_ID":"2023-168D","EPOCH":"2026-03-09T19:03:52.964928","MEAN_MOTION":15.28240044,"ECCENTRICITY":0.00013417,"INCLINATION":97.7802,"RA_OF_ASC_NODE":98.3362,"ARG_OF_PERICENTER":174.0661,"MEAN_ANOMALY":186.0594,"EPHEMERIS_TYPE":0,"CLASSIFICATION_TYPE":"U","NORAD_CAT_ID":58202,"ELEMENT_SET_NO":999,"REV_AT_EPOCH":12922,"BSTAR":0.0014474773,"MEAN_MOTION_DOT":0.00039923,"MEAN_MOTION_DDOT":0}]
